[{"OBJECT_NAME":"CSTP 1.2 (STC 1.2)","OBJECT_ID":"2023-091W","EPOCH":"2026-03-09T23:12:27.821952","MEAN_MOTION":15.2718076,"ECCENTRICITY":0.00204388,"INCLINATION":97.5258,"RA_OF_ASC_NODE":134.3262,"ARG_OF_PERICENTER":84.9592,"MEAN_ANOMALY":275.3979,"EPHEMERIS_TYPE":0,"CLASSIFICATION_TYPE":"U","NORAD_CAT_ID":57186,"ELEMENT_SET_NO":999,"REV_AT_EPOCH":14930,"BSTAR":0.00043035718,"MEAN_MOTION_DOT":0.00011466,"MEAN_MOTION_DDOT":0},{"OBJECT_NAME":"STARLINK-35485","OBJECT_ID":"2025-245T","EPOCH":"2026-03-09T20:34:31.389600","MEAN_MOTION":15.30187722,"ECCENTRICITY":0.00010902,"INCLINATION":53.1586,"RA_OF_ASC_NODE":283.0093,"ARG_OF_PERICENTER":152.8442,"MEAN_ANOMALY":207.2616,"EPHEMERIS_TYPE":0,"CLASSIFICATION_TYPE":"U","NORAD_CAT_ID":66251,"ELEMENT_SET_NO":999,"REV_AT_EPOCH":2106,"BSTAR":0.0014295218,"MEAN_MOTION_DOT":0.00042204,"MEAN_MOTION_DDOT":0}]
